[{"OBJECT_NAME":"STARLINK-3711","OBJECT_ID":"2022-029AV","EPOCH":"2026-03-09T23:28:15.759552","MEAN_MOTION":15.14150134,"ECCENTRICITY":6.042e-5,"INCLINATION":53.2142,"RA_OF_ASC_NODE":66.1332,"ARG_OF_PERICENTER":49.6209,"MEAN_ANOMALY":310.4839,"EPHEMERIS_TYPE":0,"CLASSIFICATION_TYPE":"U","NORAD_CAT_ID":52131,"ELEMENT_SET_NO":999,"REV_AT_EPOCH":22100,"BSTAR":0.0018381126,"MEAN_MOTION_DOT":0.00033758,"MEAN_MOTION_DDOT":0},{"OBJECT_NAME":"OBJECT D","OBJECT_ID":"2025-180D","EPOCH":"2026-03-07T14:42:33.383232","MEAN_MOTION":15.14421951,"ECCENTRICITY":0.00131383,"INCLINATION":97.5098,"RA_OF_ASC_NODE":194.941,"ARG_OF_PERICENTER":314.6829,"MEAN_ANOMALY":45.3332,"EPHEMERIS_TYPE":0,"CLASSIFICATION_TYPE":"U","NORAD_CAT_ID":65262,"ELEMENT_SET_NO":999,"REV_AT_EPOCH":3028,"BSTAR":0.00044965302,"MEAN_MOTION_DOT":8.214e-5,"MEAN_MOTION_DDOT":0}]
